NORAD_CAT_ID,OBJECT_NAME,OBJECT_TYPE,EPOCH,MEAN_MOTION,ECCENTRICITY,INCLINATION,RA_OF_ASC_NODE,ARG_OF_PERICENTER,MEAN_ANOMALY,BSTAR,MEAN_MOTION_DOT,MEAN_MOTION_DDOT,TLE_LINE0,TLE_LINE1,TLE_LINE2,SEMIMAJOR_AXIS,PERIOD,APOGEE,PERIGEE,DECAYED
54095.0,STARLINK-5193,PAYLOAD,2023-04-10 10:38:15,15.08846545,0.0001199,53.2188,71.3823,88.3054,271.8076,9.0185e-05,1.148e-05,0.0,0 STARLINK-5193,1 54095U 22136AW  23100.44323434  .00001148  00000-0  90185-4 0  9991,2 54095  53.2188  71.3823 0001199  88.3054 271.8076 15.08846545 26795,6917.86,95.437,540.555,538.896,0.0
54095.0,STARLINK-5193,PAYLOAD,2023-04-11 07:18:15,15.08854658,0.0001251,53.2188,67.515,99.607,260.5064,0.00012876,1.763e-05,0.0,0 STARLINK-5193,1 54095U 22136AW  23101.30434609  .00001763  00000-0  12876-3 0  9997,2 54095  53.2188  67.5150 0001251  99.6070 260.5064 15.08854658 26456,6917.836,95.437,540.566,538.835,0.0
54095.0,STARLINK-5193,PAYLOAD,2023-04-11 21:36:45,15.08831875,0.0001146,53.2189,64.8408,84.2191,275.8932,5.1641e-05,5.34e-06,0.0,0 STARLINK-5193,1 54095U 22136AW  23101.90052313  .00000534  00000-0  51641-4 0  9990,2 54095  53.2189  64.8408 0001146  84.2191 275.8932 15.08831875 26549,6917.905,95.438,540.563,538.977,0.0
54095.0,STARLINK-5193,PAYLOAD,2023-04-12 03:58:17,15.08842628,0.0001081,53.2189,63.6522,92.578,267.5336,1.0088e-06,-2.72e-06,0.0,0 STARLINK-5193,1 54095U 22136AW  23102.16547850 -.00000272  00000-0  10088-5 0  9995,2 54095  53.2189  63.6522 0001081  92.5780 267.5336 15.08842628 27058,6917.872,95.437,540.485,538.99,0.0
54095.0,STARLINK-5193,PAYLOAD,2023-04-13 03:49:04,15.08839682,7.41e-05,53.2183,59.194,84.3045,275.8032,2.9299e-05,1.79e-06,0.0,0 STARLINK-5193,1 54095U 22136AW  23103.15907990  .00000179  00000-0  29299-4 0  9998,2 54095  53.2183  59.1940 0000741  84.3045 275.8032 15.08839682 26736,6917.881,95.438,540.259,539.234,0.0
54095.0,STARLINK-5193,PAYLOAD,2023-04-14 03:39:50,15.08847771,8.68e-05,53.2184,54.7315,89.7993,270.3099,0.00015977,2.256e-05,0.0,0 STARLINK-5193,1 54095U 22136AW  23104.15267275  .00002256  00000-0  15977-3 0  9999,2 54095  53.2184  54.7315 0000868  89.7993 270.3099 15.08847771 27355,6917.857,95.437,540.322,539.121,0.0
54095.0,STARLINK-5193,PAYLOAD,2023-04-15 00:19:52,15.08837978,0.0001008,53.2188,50.8677,96.7694,263.3413,7.7632e-05,9.48e-06,0.0,0 STARLINK-5193,1 54095U 22136AW  23105.01380342  .00000948  00000-0  77632-4 0  9999,2 54095  53.2188  50.8677 0001008  96.7694 263.3413 15.08837978 27484,6917.887,95.438,540.449,539.054,0.0
54095.0,STARLINK-5193,PAYLOAD,2023-04-15 03:30:38,15.08836356,0.0001032,53.2186,50.2735,88.0401,272.0709,7.1363e-05,8.48e-06,0.0,0 STARLINK-5193,1 54095U 22136AW  23105.14628210  .00000848  00000-0  71363-4 0  9996,2 54095  53.2186  50.2735 0001032  88.0401 272.0709 15.08836356 27033,6917.892,95.438,540.47,539.043,0.0
54095.0,STARLINK-5193,PAYLOAD,2023-04-16 03:21:25,15.08849676,0.0001175,53.2187,45.8139,111.3332,248.7786,3.8785e-05,3.3e-06,0.0,0 STARLINK-5193,1 54095U 22136AW  23106.13987840  .00000330  00000-0  38785-4 0  9990,2 54095  53.2187  45.8139 0001175 111.3332 248.7786 15.08849676 27655,6917.851,95.437,540.529,538.903,0.0
54095.0,STARLINK-5193,PAYLOAD,2023-04-16 19:15:17,15.08837403,0.0001313,53.2195,42.8403,93.7111,266.4031,9.3523e-05,1.201e-05,0.0,0 STARLINK-5193,1 54095U 22136AW  23106.80228683  .00001201  00000-0  93523-4 0  9996,2 54095  53.2195  42.8403 0001313  93.7111 266.4031 15.08837403 27753,6917.888,95.438,540.662,538.845,0.0
54095.0,STARLINK-5193,PAYLOAD,2023-04-17 04:47:36,15.0884018,0.0001201,53.2189,41.0532,91.6166,268.4964,8.4073e-05,1.05e-05,0.0,0 STARLINK-5193,1 54095U 22136AW  23107.19972503  .00001050  00000-0  84073-4 0  9998,2 54095  53.2189  41.0532 0001201  91.6166 268.4964 15.08840180 27341,6917.88,95.438,540.576,538.914,0.0
54095.0,STARLINK-5193,PAYLOAD,2023-04-18 03:02:59,15.08850041,0.0001291,53.2192,36.8879,99.586,260.5278,7.4013e-05,8.91e-06,0.0,0 STARLINK-5193,1 54095U 22136AW  23108.12708003  .00000891  00000-0  74013-4 0  9999,2 54095  53.2192  36.8879 0001291  99.5860 260.5278 15.08850041 27481,6917.85,95.437,540.608,538.822,0.0
54095.0,STARLINK-5193,PAYLOAD,2023-04-18 18:56:52,15.08836542,0.0001333,53.22,33.9165,92.5076,267.6069,3.8862e-05,3.31e-06,0.0,0 STARLINK-5193,1 54095U 22136AW  23108.78949181  .00000331  00000-0  38862-4 0  9996,2 54095  53.2200  33.9165 0001333  92.5076 267.6069 15.08836542 27583,6917.891,95.438,540.678,538.834,0.0
54095.0,STARLINK-5193,PAYLOAD,2023-04-19 01:18:24,15.08840427,0.0001393,53.2201,32.7266,97.0867,263.0284,6.9987e-05,8.26e-06,0.0,0 STARLINK-5193,1 54095U 22136AW  23109.05444834  .00000826  00000-0  69987-4 0  9993,2 54095  53.2201  32.7266 0001393  97.0867 263.0284 15.08840427 27628,6917.879,95.438,540.708,538.78,0.0
54095.0,STARLINK-5193,PAYLOAD,2023-04-20 01:09:11,15.08845647,0.0001234,53.2188,28.2661,85.9008,274.2125,1.2449e-05,-9e-07,0.0,0 STARLINK-5193,1 54095U 22136AW  23110.04804816 -.00000090  00000-0  12449-4 0  9999,2 54095  53.2188  28.2661 0001234  85.9008 274.2125 15.08845647 27771,6917.863,95.437,540.582,538.874,0.0
54095.0,STARLINK-5193,PAYLOAD,2023-04-21 10:32:17,15.08838847,0.000106,53.2184,22.0229,91.1069,269.0044,6.8729e-05,8.06e-06,0.0,0 STARLINK-5193,1 54095U 22136AW  23111.43909394  .00000806  00000-0  68729-4 0  9996,2 54095  53.2184  22.0229 0001060  91.1069 269.0044 15.08838847 27981,6917.884,95.438,540.482,539.016,0.0
54095.0,STARLINK-5193,PAYLOAD,2023-04-22 00:50:45,15.0884339,9.09e-05,53.217,19.349,51.9179,308.1895,6.4295e-05,7.36e-06,0.0,0 STARLINK-5193,1 54095U 22136AW  23112.03525229  .00000736  00000-0  64295-4 0  9990,2 54095  53.2170  19.3490 0000909  51.9179 308.1895 15.08843390 28071,6917.87,95.437,540.364,539.106,0.0
54095.0,STARLINK-5193,PAYLOAD,2023-04-22 16:44:36,15.08859644,7.01e-05,53.2168,16.3736,75.7634,284.3436,-0.00010469,-1.954e-05,0.0,0 STARLINK-5193,1 54095U 22136AW  23112.69764891 -.00001954  00000-0 -10469-3 0  9990,2 54095  53.2168  16.3736 0000701  75.7634 284.3436 15.08859644 28174,6917.82,95.436,540.17,539.2,0.0
54095.0,STARLINK-5193,PAYLOAD,2023-04-23 00:41:33,15.08846769,3.64e-05,53.2167,14.887,350.9465,9.152,-0.00019478,-3.387e-05,0.0,0 STARLINK-5193,1 54095U 22136AW  23113.02885709 -.00003387  00000-0 -19478-3 0  9991,2 54095  53.2167  14.8870 0000364 350.9465   9.1520 15.08846769 28227,6917.86,95.437,539.977,539.473,0.0
54095.0,STARLINK-5193,PAYLOAD,2023-04-24 02:07:41,15.08862784,9.73e-05,53.2173,10.1282,129.5092,230.5987,9.5423e-05,1.232e-05,0.0,0 STARLINK-5193,1 54095U 22136AW  23114.08867641  .00001232  00000-0  95423-4 0  9993,2 54095  53.2173  10.1282 0000973 129.5092 230.5987 15.08862784 28853,6917.811,95.436,540.349,539.003,0.0
54095.0,STARLINK-5193,PAYLOAD,2023-04-25 00:23:03,15.0887926,0.0001249,53.2165,5.9633,108.8968,251.216,0.00044113,6.747e-05,0.0,0 STARLINK-5193,1 54095U 22136AW  23115.01601610  .00006747  00000-0  44113-3 0  9994,2 54095  53.2165   5.9633 0001249 108.8968 251.2160 15.08879260 28990,6917.76,95.435,540.489,538.761,0.0
54095.0,STARLINK-5193,PAYLOAD,2023-04-26 06:35:27,15.08826336,0.0001168,53.2158,0.3143,70.9072,289.2047,2.4284e-05,9.9e-07,0.0,0 STARLINK-5193,1 54095U 22136AW  23116.27462109  .00000099  00000-0  24284-4 0  9993,2 54095  53.2158   0.3143 0001168  70.9072 289.2047 15.08826336 28713,6917.922,95.438,540.595,538.979,0.0
54095.0,STARLINK-5193,PAYLOAD,2023-04-26 22:29:18,15.08837466,8e-05,53.2159,357.3424,87.4421,272.6663,0.00039938,6.074e-05,0.0,0 STARLINK-5193,1 54095U 22136AW  23116.93702049  .00006074  00000-0  39938-3 0  9996,2 54095  53.2159 357.3424 0000800  87.4421 272.6663 15.08837466 28811,6917.888,95.438,540.307,539.2,0.0
54095.0,STARLINK-5193,PAYLOAD,2023-04-27 01:40:04,15.08851347,8.86e-05,53.2167,356.7466,89.3578,270.7516,0.00022798,3.344e-05,0.0,0 STARLINK-5193,1 54095U 22136AW  23117.06949120  .00003344  00000-0  22798-3 0  9997,2 54095  53.2167 356.7466 0000886  89.3578 270.7516 15.08851347 29302,6917.846,95.437,540.324,539.098,0.0
54095.0,STARLINK-5193,PAYLOAD,2023-04-27 20:44:43,15.08840716,0.0001039,53.2162,353.1799,63.2898,296.8201,0.00088123,0.00013765,0.0,0 STARLINK-5193,1 54095U 22136AW  23117.86439110  .00013765  00000-0  88123-3 0  9990,2 54095  53.2162 353.1799 0001039  63.2898 296.8201 15.08840716 29425,6917.878,95.438,540.462,539.024,0.0
54095.0,STARLINK-5193,PAYLOAD,2023-04-28 01:30:52,15.08850277,0.0001098,53.2164,352.284,77.8305,282.281,0.00090228,0.00014105,0.0,0 STARLINK-5193,1 54095U 22136AW  23118.06310551  .00014105  00000-0  90228-3 0  9998,2 54095  53.2164 352.2840 0001098  77.8305 282.2810 15.08850277 28981,6917.849,95.437,540.474,538.954,0.0
54095.0,STARLINK-5193,PAYLOAD,2023-04-29 01:21:38,15.08848377,8.79e-05,53.2172,347.8248,65.3251,294.7833,-8.6541e-05,-1.665e-05,0.0,0 STARLINK-5193,1 54095U 22136AW  23119.05669926 -.00001665  00000-0 -86541-4 0  9994,2 54095  53.2172 347.8248 0000879  65.3251 294.7833 15.08848377 29601,6917.855,95.437,540.328,539.112,0.0
54095.0,STARLINK-5193,PAYLOAD,2023-04-29 23:37:02,15.08852884,0.0001004,53.2154,343.6619,73.21,286.9002,6.339e-05,7.22e-06,0.0,0 STARLINK-5193,1 54095U 22136AW  23119.98405421  .00000722  00000-0  63390-4 0  9992,2 54095  53.2154 343.6619 0001004  73.2100 286.9002 15.08852884 29271,6917.841,95.437,540.401,539.011,0.0
54095.0,STARLINK-5193,PAYLOAD,2023-04-30 15:30:54,15.08837745,0.0001101,53.2157,340.6875,83.6721,276.4396,1.9285e-05,1.9e-07,0.0,0 STARLINK-5193,1 54095U 22136AW  23120.64646208  .00000019  00000-0  19285-4 0  9990,2 54095  53.2157 340.6875 0001101  83.6721 276.4396 15.08837745 29849,6917.887,95.438,540.514,538.991,0.0
54095.0,STARLINK-5193,PAYLOAD,2023-04-30 21:52:27,15.08838503,0.0001023,53.2165,339.4983,79.7332,280.3776,6.0329e-05,6.72e-06,0.0,0 STARLINK-5193,1 54095U 22136AW  23120.91142396  .00000672  00000-0  60329-4 0  9999,2 54095  53.2165 339.4983 0001023  79.7332 280.3776 15.08838503 29413,6917.885,95.438,540.458,539.042,0.0
